STARLINK-34047          
1 63821U 25092T   26068.30092785  .00030371  00000+0  11083-2 0  9992
2 63821  42.9956 174.8758 0000910 329.5437  30.5361 15.27591247 48609
COSMOS 2588             
1 64095U 25109A   26068.81179522  .00009169  00000+0  32611-3 0  9998
2 64095  72.9704  73.5401 0005019 308.6780  51.3966 15.29122656 44425
